QIANFAN-101             
1 66043U 25233L   25318.82128441  .00000685  00000+0  27712-3 0  9993
2 66043  88.9961  65.2432 0016655 122.7013 237.5789 14.26647686  4064
QIANFAN-102             
1 66044U 25233M   25318.54758682  .00001265  00000+0  55148-3 0  9998
2 66044  88.9959  65.2762 0017184 125.3110 234.9692 14.23307749  4023
QIANFAN-103             
1 66045U 25233N   25318.83034139  .00000967  00000+0  42920-3 0  9997
2 66045  88.9940  65.2349 0016998 124.1596 236.1210 14.22183375  4062
QIANFAN-104             
1 66046U 25233P   25318.54683794  .00001243  00000+0  54229-3 0  9996
2 66046  88.9960  65.2770 0016527 126.2648 234.0074 14.23254188  4025
QIANFAN-105             
1 66047U 25233Q   25318.61752932  .00000556  00000+0  23849-3 0  9996
2 66047  88.9960  65.2684 0016530 125.0783 235.1962 14.23418916  4031
QIANFAN-106             
1 66048U 25233R   25318.75793164  .00001127  00000+0  49696-3 0  9997
2 66048  88.9976  65.2570 0016526 114.7413 245.5501 14.22675660  4059
QIANFAN-107             
1 66049U 25233S   25318.54608479  .00001200  00000+0  52364-3 0  9997
2 66049  88.9960  65.2761 0017411 124.6521 235.6316 14.23243507  4022
QIANFAN-108             
1 66050U 25233T   25318.61725911  .00000802  00000+0  34967-3 0  9994
2 66050  88.9959  65.2681 0017146 124.6082 235.6729 14.22990360  4034
CZ-6A R/B               
1 66051U 25233U   25318.84593046  .00000677  00000+0  13955-3 0  9996
2 66051  89.0300  65.1532 0084629  22.5716 337.9181 14.57025853  4156
2025-234A               
1 66053U 25234A   25318.81434414  .00035401  00000+0  14832-2 0  9996
2 66053  97.4604  24.2833 0014684 192.4028 167.6849 15.23344706  4069
2025-234B               
1 66054U 25234B   25318.83240384  .00008781  00000+0  39300-3 0  9999
2 66054  97.5034  24.4031 0014796 183.1012 177.0134 15.21425479  4061
2025-234C               
1 66055U 25234C   25318.83020369  .00007865  00000+0  35097-3 0  9990
2 66055  97.4557  24.2454 0015470 184.9694 175.1390 15.21547016  4068
