CCSDS_OMM_VERS = 2.0
CREATION_DATE  = 
ORIGINATOR     = 

OBJECT_NAME    = QIANFAN-101
OBJECT_ID      = 2025-233L
CENTER_NAME    = EARTH
REF_FRAME      = TEME
TIME_SYSTEM    = UTC
MEAN_ELEMENT_THEORY = SGP/SGP4

EPOCH          = 2025-11-14T19:42:38.973024
MEAN_MOTION    = 14.26647686
ECCENTRICITY   = .0016655
INCLINATION    = 88.9961
RA_OF_ASC_NODE = 65.2432
ARG_OF_PERICENTER = 122.7013
MEAN_ANOMALY   = 237.5789

EPHEMERIS_TYPE = 0
CLASSIFICATION_TYPE = U
NORAD_CAT_ID   = 66043
ELEMENT_SET_NO = 999
REV_AT_EPOCH   = 406
BSTAR          = .27712E-3
MEAN_MOTION_DOT = .685E-5
MEAN_MOTION_DDOT = 0

CCSDS_OMM_VERS = 2.0
CREATION_DATE  = 
ORIGINATOR     = 

OBJECT_NAME    = QIANFAN-102
OBJECT_ID      = 2025-233M
CENTER_NAME    = EARTH
REF_FRAME      = TEME
TIME_SYSTEM    = UTC
MEAN_ELEMENT_THEORY = SGP/SGP4

EPOCH          = 2025-11-14T13:08:31.501248
MEAN_MOTION    = 14.23307749
ECCENTRICITY   = .0017184
INCLINATION    = 88.9959
RA_OF_ASC_NODE = 65.2762
ARG_OF_PERICENTER = 125.3110
MEAN_ANOMALY   = 234.9692

EPHEMERIS_TYPE = 0
CLASSIFICATION_TYPE = U
NORAD_CAT_ID   = 66044
ELEMENT_SET_NO = 999
REV_AT_EPOCH   = 402
BSTAR          = .55148E-3
MEAN_MOTION_DOT = .1265E-4
MEAN_MOTION_DDOT = 0

CCSDS_OMM_VERS = 2.0
CREATION_DATE  = 
ORIGINATOR     = 

OBJECT_NAME    = QIANFAN-103
OBJECT_ID      = 2025-233N
CENTER_NAME    = EARTH
REF_FRAME      = TEME
TIME_SYSTEM    = UTC
MEAN_ELEMENT_THEORY = SGP/SGP4

EPOCH          = 2025-11-14T19:55:41.496096
MEAN_MOTION    = 14.22183375
ECCENTRICITY   = .0016998
INCLINATION    = 88.9940
RA_OF_ASC_NODE = 65.2349
ARG_OF_PERICENTER = 124.1596
MEAN_ANOMALY   = 236.1210

EPHEMERIS_TYPE = 0
CLASSIFICATION_TYPE = U
NORAD_CAT_ID   = 66045
ELEMENT_SET_NO = 999
REV_AT_EPOCH   = 406
BSTAR          = .4292E-3
MEAN_MOTION_DOT = .967E-5
MEAN_MOTION_DDOT = 0

CCSDS_OMM_VERS = 2.0
CREATION_DATE  = 
ORIGINATOR     = 

OBJECT_NAME    = QIANFAN-104
OBJECT_ID      = 2025-233P
CENTER_NAME    = EARTH
REF_FRAME      = TEME
TIME_SYSTEM    = UTC
MEAN_ELEMENT_THEORY = SGP/SGP4

EPOCH          = 2025-11-14T13:07:26.798016
MEAN_MOTION    = 14.23254188
ECCENTRICITY   = .0016527
INCLINATION    = 88.9960
RA_OF_ASC_NODE = 65.2770
ARG_OF_PERICENTER = 126.2648
MEAN_ANOMALY   = 234.0074

EPHEMERIS_TYPE = 0
CLASSIFICATION_TYPE = U
NORAD_CAT_ID   = 66046
ELEMENT_SET_NO = 999
REV_AT_EPOCH   = 402
BSTAR          = .54229E-3
MEAN_MOTION_DOT = .1243E-4
MEAN_MOTION_DDOT = 0

CCSDS_OMM_VERS = 2.0
CREATION_DATE  = 
ORIGINATOR     = 

OBJECT_NAME    = QIANFAN-105
OBJECT_ID      = 2025-233Q
CENTER_NAME    = EARTH
REF_FRAME      = TEME
TIME_SYSTEM    = UTC
MEAN_ELEMENT_THEORY = SGP/SGP4

EPOCH          = 2025-11-14T14:49:14.533248
MEAN_MOTION    = 14.23418916
ECCENTRICITY   = .001653
INCLINATION    = 88.9960
RA_OF_ASC_NODE = 65.2684
ARG_OF_PERICENTER = 125.0783
MEAN_ANOMALY   = 235.1962

EPHEMERIS_TYPE = 0
CLASSIFICATION_TYPE = U
NORAD_CAT_ID   = 66047
ELEMENT_SET_NO = 999
REV_AT_EPOCH   = 403
BSTAR          = .23849E-3
MEAN_MOTION_DOT = .556E-5
MEAN_MOTION_DDOT = 0

CCSDS_OMM_VERS = 2.0
CREATION_DATE  = 
ORIGINATOR     = 

OBJECT_NAME    = QIANFAN-106
OBJECT_ID      = 2025-233R
CENTER_NAME    = EARTH
REF_FRAME      = TEME
TIME_SYSTEM    = UTC
MEAN_ELEMENT_THEORY = SGP/SGP4

EPOCH          = 2025-11-14T18:11:25.293696
MEAN_MOTION    = 14.22675660
ECCENTRICITY   = .0016526
INCLINATION    = 88.9976
RA_OF_ASC_NODE = 65.2570
ARG_OF_PERICENTER = 114.7413
MEAN_ANOMALY   = 245.5501

EPHEMERIS_TYPE = 0
CLASSIFICATION_TYPE = U
NORAD_CAT_ID   = 66048
ELEMENT_SET_NO = 999
REV_AT_EPOCH   = 405
BSTAR          = .49696E-3
MEAN_MOTION_DOT = .1127E-4
MEAN_MOTION_DDOT = 0

CCSDS_OMM_VERS = 2.0
CREATION_DATE  = 
ORIGINATOR     = 

OBJECT_NAME    = QIANFAN-107
OBJECT_ID      = 2025-233S
CENTER_NAME    = EARTH
REF_FRAME      = TEME
TIME_SYSTEM    = UTC
MEAN_ELEMENT_THEORY = SGP/SGP4

EPOCH          = 2025-11-14T13:06:21.725856
MEAN_MOTION    = 14.23243507
ECCENTRICITY   = .0017411
INCLINATION    = 88.9960
RA_OF_ASC_NODE = 65.2761
ARG_OF_PERICENTER = 124.6521
MEAN_ANOMALY   = 235.6316

EPHEMERIS_TYPE = 0
CLASSIFICATION_TYPE = U
NORAD_CAT_ID   = 66049
ELEMENT_SET_NO = 999
REV_AT_EPOCH   = 402
BSTAR          = .52364E-3
MEAN_MOTION_DOT = .12E-4
MEAN_MOTION_DDOT = 0

CCSDS_OMM_VERS = 2.0
CREATION_DATE  = 
ORIGINATOR     = 

OBJECT_NAME    = QIANFAN-108
OBJECT_ID      = 2025-233T
CENTER_NAME    = EARTH
REF_FRAME      = TEME
TIME_SYSTEM    = UTC
MEAN_ELEMENT_THEORY = SGP/SGP4

EPOCH          = 2025-11-14T14:48:51.187104
MEAN_MOTION    = 14.22990360
ECCENTRICITY   = .0017146
INCLINATION    = 88.9959
RA_OF_ASC_NODE = 65.2681
ARG_OF_PERICENTER = 124.6082
MEAN_ANOMALY   = 235.6729

EPHEMERIS_TYPE = 0
CLASSIFICATION_TYPE = U
NORAD_CAT_ID   = 66050
ELEMENT_SET_NO = 999
REV_AT_EPOCH   = 403
BSTAR          = .34967E-3
MEAN_MOTION_DOT = .802E-5
MEAN_MOTION_DDOT = 0

CCSDS_OMM_VERS = 2.0
CREATION_DATE  = 
ORIGINATOR     = 

OBJECT_NAME    = CZ-6A R/B
OBJECT_ID      = 2025-233U
CENTER_NAME    = EARTH
REF_FRAME      = TEME
TIME_SYSTEM    = UTC
MEAN_ELEMENT_THEORY = SGP/SGP4

EPOCH          = 2025-11-14T20:18:08.391744
MEAN_MOTION    = 14.57025853
ECCENTRICITY   = .0084629
INCLINATION    = 89.0300
RA_OF_ASC_NODE = 65.1532
ARG_OF_PERICENTER = 22.5716
MEAN_ANOMALY   = 337.9181

EPHEMERIS_TYPE = 0
CLASSIFICATION_TYPE = U
NORAD_CAT_ID   = 66051
ELEMENT_SET_NO = 999
REV_AT_EPOCH   = 415
BSTAR          = .13955E-3
MEAN_MOTION_DOT = .677E-5
MEAN_MOTION_DDOT = 0

CCSDS_OMM_VERS = 2.0
CREATION_DATE  = 
ORIGINATOR     = 

OBJECT_NAME    = 2025-234A
OBJECT_ID      = 2025-234A
CENTER_NAME    = EARTH
REF_FRAME      = TEME
TIME_SYSTEM    = UTC
MEAN_ELEMENT_THEORY = SGP/SGP4

EPOCH          = 2025-11-14T19:32:39.333696
MEAN_MOTION    = 15.23344706
ECCENTRICITY   = .0014684
INCLINATION    = 97.4604
RA_OF_ASC_NODE = 24.2833
ARG_OF_PERICENTER = 192.4028
MEAN_ANOMALY   = 167.6849

EPHEMERIS_TYPE = 0
CLASSIFICATION_TYPE = U
NORAD_CAT_ID   = 66053
ELEMENT_SET_NO = 999
REV_AT_EPOCH   = 406
BSTAR          = .14832E-2
MEAN_MOTION_DOT = .35401E-3
MEAN_MOTION_DDOT = 0

CCSDS_OMM_VERS = 2.0
CREATION_DATE  = 
ORIGINATOR     = 

OBJECT_NAME    = 2025-234B
OBJECT_ID      = 2025-234B
CENTER_NAME    = EARTH
REF_FRAME      = TEME
TIME_SYSTEM    = UTC
MEAN_ELEMENT_THEORY = SGP/SGP4

EPOCH          = 2025-11-14T19:58:39.691776
MEAN_MOTION    = 15.21425479
ECCENTRICITY   = .0014796
INCLINATION    = 97.5034
RA_OF_ASC_NODE = 24.4031
ARG_OF_PERICENTER = 183.1012
MEAN_ANOMALY   = 177.0134

EPHEMERIS_TYPE = 0
CLASSIFICATION_TYPE = U
NORAD_CAT_ID   = 66054
ELEMENT_SET_NO = 999
REV_AT_EPOCH   = 406
BSTAR          = .393E-3
MEAN_MOTION_DOT = .8781E-4
MEAN_MOTION_DDOT = 0

CCSDS_OMM_VERS = 2.0
CREATION_DATE  = 
ORIGINATOR     = 

OBJECT_NAME    = 2025-234C
OBJECT_ID      = 2025-234C
CENTER_NAME    = EARTH
REF_FRAME      = TEME
TIME_SYSTEM    = UTC
MEAN_ELEMENT_THEORY = SGP/SGP4

EPOCH          = 2025-11-14T19:55:29.598816
MEAN_MOTION    = 15.21547016
ECCENTRICITY   = .001547
INCLINATION    = 97.4557
RA_OF_ASC_NODE = 24.2454
ARG_OF_PERICENTER = 184.9694
MEAN_ANOMALY   = 175.1390

EPHEMERIS_TYPE = 0
CLASSIFICATION_TYPE = U
NORAD_CAT_ID   = 66055
ELEMENT_SET_NO = 999
REV_AT_EPOCH   = 406
BSTAR          = .35097E-3
MEAN_MOTION_DOT = .7865E-4
MEAN_MOTION_DDOT = 0

